{
  "norad_id": 64762,
  "name": "STARLINK-34638",
  "history": [
    {
      "epoch": "2026-03-28T21:50:31.161696Z",
      "apogee_km": 476.1115191630406,
      "perigee_km": 474.2185000819436,
      "latitude_deg": -1.6578602757823782e-05,
      "longitude_deg": -0.42050731047215456,
      "height_km": 476.1590845438397,
      "semi_major_axis_km": 6853.302009622492,
      "eccentricity": 0.00013811,
      "inclination_deg": 53.1606,
      "raan_deg": 153.5331,
      "arg_perigee_deg": 95.8256,
      "mean_anomaly_deg": 264.2902,
      "mean_motion_rev_day": 15.30216766
    },
    {
      "epoch": "2026-03-29T04:06:43.902144Z",
      "apogee_km": 476.51175461710864,
      "perigee_km": 473.7992214503447,
      "latitude_deg": 5.135166406716893e-05,
      "longitude_deg": -95.94405004494949,
      "height_km": 476.2798073269997,
      "semi_major_axis_km": 6853.292488033726,
      "eccentricity": 0.0001979,
      "inclination_deg": 53.16,
      "raan_deg": 152.3201,
      "arg_perigee_deg": 99.6442,
      "mean_anomaly_deg": 260.4783,
      "mean_motion_rev_day": 15.30219955
    },
    {
      "epoch": "2026-03-30T03:37:31.831104Z",
      "apogee_km": 476.06131532763993,
      "perigee_km": 474.30549463988336,
      "latitude_deg": 5.1202362176727874e-05,
      "longitude_deg": -94.15931103614723,
      "height_km": 475.97335298281365,
      "semi_major_axis_km": 6853.320404983761,
      "eccentricity": 0.0001281,
      "inclination_deg": 53.1594,
      "raan_deg": 147.7702,
      "arg_perigee_deg": 82.9297,
      "mean_anomaly_deg": 277.185,
      "mean_motion_rev_day": 15.30210605
    }
  ]
}